[{"OBJECT_NAME":"STARLINK-35000","OBJECT_ID":"2025-184F","EPOCH":"2026-03-09T15:57:10.240704","MEAN_MOTION":15.05651833,"ECCENTRICITY":0.00014184,"INCLINATION":97.6025,"RA_OF_ASC_NODE":122.5825,"ARG_OF_PERICENTER":119.6372,"MEAN_ANOMALY":240.4997,"EPHEMERIS_TYPE":0,"CLASSIFICATION_TYPE":"U","NORAD_CAT_ID":65278,"ELEMENT_SET_NO":999,"REV_AT_EPOCH":3129,"BSTAR":0.00025453426,"MEAN_MOTION_DOT":3.614e-5,"MEAN_MOTION_DDOT":0},{"OBJECT_NAME":"CZ-2D DEB","OBJECT_ID":"2017-060C","EPOCH":"2026-03-09T12:36:22.356864","MEAN_MOTION":15.07716497,"ECCENTRICITY":0.0018685,"INCLINATION":98.2453,"RA_OF_ASC_NODE":267.9231,"ARG_OF_PERICENTER":71.2095,"MEAN_ANOMALY":289.1156,"EPHEMERIS_TYPE":0,"CLASSIFICATION_TYPE":"U","NORAD_CAT_ID":44610,"ELEMENT_SET_NO":999,"REV_AT_EPOCH":45422,"BSTAR":0.00057216024,"MEAN_MOTION_DOT":8.702e-5,"MEAN_MOTION_DDOT":0}]
